CCSDS_OEM_VERS = 2.0  
CREATION_DATE  = 2026-02-27T09:26:39
ORIGINATOR     = ESOC/OPS-GFA                            
 
 



META_START
OBJECT_NAME          = LISA                                    
OBJECT_ID            = -1000                                   
CENTER_NAME          = SUN                     
REF_FRAME            = EME2000 
TIME_SYSTEM          = TCB
START_TIME           = 2036-12-23T00:00:30.346418            
STOP_TIME            = 2047-09-09T03:02:52.055574            
INTERPOLATION        = HERMITE                                 
INTERPOLATION_DEGREE = 7                                       
META_STOP

2042-03-20T03:15:41.372309    -1.37076859426447451e+08    5.52467368731538951e+07    2.38732925867702886e+07   -1.18419671557957553e+01   -2.49673093629344685e+01   -1.10921106485569698e+01    5.42186712389754743e-06   -2.18534976620290543e-06   -9.44332689720532388e-07
2042-03-20T23:37:05.154632    -1.37930092925355107e+08    5.34112342927956283e+07    2.30579136519821137e+07   -1.14433476120723299e+01   -2.51248187289997560e+01   -1.11601413352837255e+01    5.45673555676519390e-06   -2.11318375425750404e-06   -9.12269143366136573e-07
2042-03-21T19:58:28.936954    -1.38754021466573775e+08    5.15643830438398123e+07    2.22376354556674920e+07   -1.10422147260915349e+01   -2.52770218535284883e+01   -1.12258146526807376e+01    5.49045779499938558e-06   -2.04053874120843535e-06   -8.79998440678849365e-07
2042-03-22T16:19:52.719276    -1.39548463989003956e+08    4.97065732622703537e+07    2.14126313056594953e+07   -1.06386527946747229e+01   -2.54238841859175260e+01   -1.12891156651330320e+01    5.52302571020259988e-06   -1.96742982463210065e-06   -8.47527293378509636e-07
2042-03-23T12:41:16.501599    -1.40313245618826360e+08    4.78381975755927861e+07    2.05830755863843635e+07   -1.02327467012752340e+01   -2.55653722866988176e+01   -1.13500299309417727e+01    5.55443142102692726e-06   -1.89387223051543611e-06   -8.14862469023095771e-07
2042-03-24T09:02:40.283921    -1.41048197695052415e+08    4.59596510206967145e+07    1.97491437224226408e+07   -9.82458189789576686e+00   -2.57014538367971888e+01   -1.14085435063489058e+01    5.58466729187417115e-06   -1.81988130883626451e-06   -7.82010789059364254e-07
2042-03-25T05:24:04.066243    -1.41753157802629948e+08    4.40713309610687122e+07    1.89110121417520717e+07   -9.41424438725486468e+00   -2.58320976464081298e+01   -1.14646429493946673e+01    5.61372592740533222e-06   -1.74547252761542071e-06   -7.48979126212975139e-07
2042-03-26T01:45:27.848565    -1.42427969819210231e+08    4.21736370034041405e+07    1.80688582386686951e+07   -9.00182070550828684e+00   -2.59572736633839511e+01   -1.15183153235597491e+01    5.64160016287993495e-06   -1.67066146544607299e-06   -7.15774401220283504e-07
2042-03-26T22:06:51.630887    -1.43072483981681436e+08    4.02669709136664122e+07    1.72228603363826722e+07   -8.58739790583099349e+00   -2.60769529810168130e+01   -1.15695482011439097e+01    5.66828305032474453e-06   -1.59546380249962174e-06   -6.82403578901643257e-07
2042-03-27T18:28:15.413209    -1.43686556978575021e+08    3.83517365326423347e+07    1.63731976492857523e+07   -8.17106354316533512e+00   -2.61911078451071297e+01   -1.16183296663328033e+01    5.69376784056030026e-06   -1.51989531002795715e-06   -6.48873663584793677e-07
2042-03-28T14:49:39.195531    -1.44270052074450493e+08    3.64283396910421923e+07    1.55200502448864467e+07   -7.75290566044143326e+00   -2.62997116602056913e+01   -1.16646483179048239e+01    5.71804796095151917e-06   -1.44397183829044482e-06   -6.15191693847197581e-07
2042-03-29T11:06:56.154781    -1.44821028804326355e+08    3.45037049039571807e+07    1.46664889225724414e+07   -7.33442978822304514e+00   -2.64024013878134340e+01   -1.17083497661672968e+01    5.74104192426650431e-06   -1.36796692935220929e-06   -5.81478997294580170e-07
2042-03-30T07:24:13.114030    -1.45341381089914650e+08    3.25717729814865030e+07    1.38098258215438556e+07   -6.91431860500460616e+00   -2.64995281390554211e+01   -1.17495838998717588e+01    5.76282739400724315e-06   -1.29164131706012336e-06   -5.47629424288888914e-07
2042-03-31T03:41:30.073279    -1.45830992753601015e+08    3.06329510567708462e+07    1.29502415007472821e+07   -6.49266057856799783e+00   -2.65910690762354420e+01   -1.17883409818065630e+01    5.78339883994093597e-06   -1.21501104821914719e-06   -5.13650095790273029e-07
2042-03-31T23:58:47.032528    -1.46289754028542131e+08    2.86876479031048268e+07    1.20879172182313800e+07   -6.06954457347151077e+00   -2.66770025366926333e+01   -1.18246117961627402e+01    5.80275093163558445e-06   -1.13809225245685210e-06   -4.79548168562507540e-07
2042-04-01T20:16:03.991778    -1.46717561643763632e+08    2.67362738358454853e+07    1.12230348873783015e+07   -5.64505983556141189e+00   -2.67573080388319617e+01   -1.18583876511324089e+01    5.82087856214129059e-06   -1.06090114159326620e-06   -4.45330834673133469e-07
2042-04-02T16:33:20.951026    -1.47114318881019294e+08    2.47792406195513904e+07    1.03557770355797186e+07   -5.21929597491939568e+00   -2.68319662880890846e+01   -1.18896603814635284e+01    5.83777686724557293e-06   -9.83454008510888361e-07   -4.11005320813941954e-07
2042-04-03T12:50:37.910275    -1.47479935609305352e+08    2.28169613790973127e+07    9.48632676477512717e+06   -4.79234294756506340e+00   -2.69009591827944483e+01   -1.19184223509584655e+01    5.85344124031078256e-06   -9.05767225524963475e-07   -3.76578887441801361e-07
2042-04-04T09:07:54.869525    -1.47814328302915215e+08    2.08498505135268383e+07    8.61486771327798814e+06   -4.36429103623642600e+00   -2.69642698199000037e+01   -1.19446664549032295e+01    5.86786734268108107e-06   -8.27857242251465716e-07   -3.42058827738817779e-07
2042-04-05T05:25:11.828773    -1.48117420048920929e+08    1.88783236114055738e+07    7.74158401831524447e+06   -3.93523083057142831e+00   -2.70218825005320049e+01   -1.19683861224141967e+01    5.88105110968105589e-06   -7.49740582977300191e-07   -3.07452466393638090e-07
2042-04-06T01:42:28.788023    -1.48389140549966812e+08    1.69027973664372899e+07    6.86666027870578133e+06   -3.50525320701345766e+00   -2.70737827353333493e+01   -1.19895753186892193e+01    5.89298875216982165e-06   -6.71433843525575356e-07   -2.72767158200964325e-07
2042-04-06T21:59:45.747272    -1.48629426128261656e+08    1.49236894921056479e+07    5.99028151710334979e+06   -3.07444930876385492e+00   -2.71199572495588548e+01   -1.20082285471499368e+01    5.90367675370136336e-06   -5.92953687625080040e-07   -2.38010286483059770e-07
2042-04-07T18:17:02.706521    -1.48838219736654699e+08    1.29414186341039389e+07    5.11263314122950472e+06   -2.64291052610438459e+00   -2.71603939878869305e+01   -1.20243408514621795e+01    5.91311186324868942e-06   -5.14316842778485213e-07   -2.03189261331053193e-07
2042-04-08T14:34:19.665770    -1.49015470982681870e+08    1.09564042793152928e+07    4.23390090352216177e+06   -2.21072847741268141e+00   -2.71950821189110812e+01   -1.20379078174212619e+01    5.92129108347273534e-06   -4.35540095620178275e-07   -1.68311517661969642e-07
2042-04-09T10:51:36.625020    -1.49161136171467662e+08    8.96906666010595858e+06    3.35427085862516612e+06   -1.77799499119359883e+00   -2.72240120392746832e+01   -1.20489255746890933e+01    5.92821165465486020e-06   -3.56640286793848358e-07   -1.33384513104534778e-07
2042-04-10T07:08:53.584269    -1.49275178373368919e+08    6.97982665269402787e+06    2.47392931814459898e+06   -1.34480208944962243e+00   -2.72471753774124430e+01   -1.20573907983698838e+01    5.93387103412751977e-06   -2.77634305311762524e-07   -9.84157256973647742e-08
2042-04-11T03:26:10.543518    -1.49357567522246063e+08    4.98910566835623607e+06    1.59306280209731869e+06   -9.11241972712996784e-01   -2.72645649968620312e+01   -1.20633007104113581e+01    5.93826687125258116e-06   -1.98539082405543898e-07   -6.34126514038948013e-08
2042-04-11T23:38:31.115288    -1.49408138472216010e+08    3.00540993389512226e+06    7.15434429698584601e+05   -4.79167940525587754e-01   -2.72761395738174457e+01   -1.20666446484955063e+01    5.94138748347253004e-06   -1.19693061368153919e-07   -2.85250345835557389e-08
2042-04-12T19:50:51.687059    -1.49427272978918225e+08    1.02108090233063512e+06   -1.62344866837811656e+05   -4.69126129874037900e-02   -2.72819767518110226e+01   -1.20674501024767320e+01    5.94325135397380366e-06   -4.07922628344993773e-08    6.38165699850978567e-09
2042-04-13T16:03:12.258830    -1.49414961209250659e+08   -9.63463971749728546e+05   -1.04009040055123623e+06    3.85432546488370553e-01   -2.72820731596350079e+01   -1.20657159562595684e+01    5.94385721692488267e-06    3.81464416669799092e-08    4.12999573984636102e-08
2042-04-14T12:15:32.830600    -1.49371199927324831e+08   -2.94780700521334261e+06   -1.91761741042464599e+06    8.17775990346075066e-01   -2.72764266549349017e+01   -1.20614416375309084e+01    5.94320402910046173e-06    1.17106137666337140e-07    7.62223818850932328e-08
2042-04-15T08:27:53.402371    -1.49295992551516533e+08   -4.93153039923654869e+06   -2.79474111154240929e+06    1.25002610397248448e+00   -2.72650363270568228e+01   -1.20546271189968763e+01    5.94129099353928726e-06    1.96069875258931147e-07    1.11141430463735782e-07
2042-04-16T04:40:13.974142    -1.49189349185593158e+08   -6.91421634127296694e+06   -3.67127674032396078e+06    1.68209122433098202e+00   -2.72479024993704115e+01   -1.20452729193738346e+01    5.93811757859490509e-06    2.75020676006905543e-07    1.46049591106269746e-07
2042-04-17T00:52:34.545913    -1.49051286629276991e+08   -8.89544709856079705e+06   -4.54703959592872299e+06    2.11387965981423820e+00   -2.72250267311115941e+01   -1.20333801041551158e+01    5.93368353238803894e-06    3.53941539237161260e-07    1.80939342688014078e-07
